NUSAT-49 (KLARA DAN VO*)
1 60500U 24149AJ  26131.96942279  .00005695  00000+0  19730-3 0  9999
2 60500  97.3778 213.5026 0004022  75.4045 284.7642 15.30232594 96592
FLOCK 4BE-11            
1 60501U 24149AK  26131.78547173  .00011612  00000+0  27647-3 0  9996
2 60501  97.3698 215.5505 0004472  65.7851 294.3863 15.41760761 96747
YAM-7                   
1 60504U 24149AN  26132.18806410  .00004567  00000+0  15356-3 0  9991
2 60504  97.3785 212.5982 0004819  74.2260 285.9513 15.31310028 96549
FLOCK 4BE-24            
1 60505U 24149AP  26132.22656614  .00011246  00000+0  26820-3 0  9996
2 60505  97.3716 216.2433 0004583  72.4641 287.7107 15.41718786 96821
LUR-1                   
1 60506U 24149AQ  26132.20385622  .00004353  00000+0  15424-3 0  9992
2 60506  97.3741 211.3059 0005604  80.4765 279.7109 15.29623633 96477
TANAGER-1               
1 60507U 24149AR  26131.68993475  .00009008  00000+0  19581-3 0  9995
2 60507  97.3211 225.8137 0005589  74.0264 286.1600 15.44550345 97400
EAGLEEYE                
1 60508U 24149AS  26132.23441074  .00048806  00000+0  49508-3 0  9992
2 60508  97.3721 223.7632 0001928  54.0999 306.0439 15.65092476 97300
FLOCK 4BE-29            
1 60509U 24149AT  26132.19949982  .00010637  00000+0  24364-3 0  9993
2 60509  97.3808 217.5660 0003871  83.4699 276.6989 15.42953584 96864
TRANSPORTER-11 OBJECT AU
1 60510U 24149AU  26132.18303135  .00009133  00000+0  23701-3 0  9991
2 60510  97.3727 215.6460 0004779  72.3205 287.8562 15.39204809 96777
FLOCK 4BE-2             
1 60511U 24149AV  26132.18131058  .00029504  00000+0  54513-3 0  9994
2 60511  97.3821 218.5623 0003645  81.9115 278.2550 15.49024866 96925
FLOCK 4BE-13            
1 60512U 24149AW  26132.19040970  .00008575  00000+0  21061-3 0  9995
2 60512  97.3719 216.2567 0004768  55.7995 304.3703 15.40908690 96823
FLOCK 4BE-27            
1 60513U 24149AX  26132.18936442  .00005376  00000+0  16680-3 0  9990
2 60513  97.3826 214.0417 0005345  80.9668 279.2180 15.33811702 96628
FLOCK 4BE-9             
1 60514U 24149AY  26132.22770694  .00010143  00000+0  25872-3 0  9992
2 60514  97.3789 216.1827 0004013  84.9043 275.2661 15.39706480 96786
FLOCK 4BE-6             
1 60516U 24149BA  26132.22924031  .00009109  00000+0  24120-3 0  9995
2 60516  97.3787 215.6076 0004749  80.9876 279.1906 15.38583484 96749
FLOCK 4BE-14            
1 60517U 24149BB  26131.98437391  .00010353  00000+0  26255-3 0  9990
2 60517  97.3694 215.4692 0005623  78.5090 281.6787 15.39867629 96755
FLOCK 4BE-1             
1 60518U 24149BC  26131.97200783  .00011900  00000+0  28682-3 0  9998
2 60518  97.3778 216.6071 0005122  78.4541 281.7280 15.41381486 96795
FLOCK 4BE-28            
1 60519U 24149BD  26132.23415540  .00012276  00000+0  27437-3 0  9992
2 60519  97.3745 217.4869 0005184  72.5646 287.6168 15.43641004 96891
IPERDRONE.0             
1 60520U 24149BE  26132.22269580  .00042382  00000+0  48793-3 0  9993
2 60520  97.3773 223.8046 0001650  44.0716 316.0673 15.61876530 97295
TRANSPORTER-11 OBJECT BF
1 60521U 24149BF  26132.22929387  .00090072  00000+0  67310-3 0  9997
2 60521  97.3774 225.7752 0000509 337.5065  22.6176 15.72433709 97412
CONNECTA IOT-2          
1 60522U 24149BG  26132.19447619  .00002898  00000+0  12373-3 0  9995
2 60522  97.3842 210.8940 0008170  92.8601 267.3571 15.23660027 96419
PTD-R (TYVAK-0127)      
1 60523U 24149BH  26132.25914340  .00133701  00000+0  49621-3 0  9997
2 60523  97.3769 229.8219 0001236 214.6775 145.4416 15.87734058 97702
CONNECTA IOT-4          
1 60524U 24149BJ  26131.46408180  .00011458  00000+0  28162-3 0  9991
2 60524  97.3794 215.4407 0006294  72.2396 287.9537 15.40792610 96675
ORESAT0.5               
1 60525U 24149BK  26131.96302340  .00012670  00000+0  28228-3 0  9998
2 60525  97.3716 217.4497 0006225  61.2746 298.9127 15.43721672 96885
DEIMOS                  
1 60526U 24149BL  26132.23542921  .00011414  00000+0  26131-3 0  9997
2 60526  97.3777 217.8823 0006358  65.9624 294.2288 15.42935903 96906
CUAVA-2                 
1 60527U 24149BM  26132.11463054  .00007929  00000+0  23361-3 0  9992
2 60527  97.3726 213.5972 0007887  69.5515 290.6575 15.35277103 96638
ERNST                   
1 60528U 24149BN  26132.20700479  .00008443  00000+0  22609-3 0  9994
2 60528  97.3806 215.6852 0007266  72.9865 287.2176 15.38246986 96744
TORO                    
1 60530U 24149BQ  26132.26329430  .00000874  00000+0  82428-4 0  9993
2 60530  97.6789 207.6041 0001586  95.6873 264.4530 14.96286207 94585
HYPSO-2                 
1 60531U 24149BR  26132.21379607  .00001636  00000+0  14130-3 0  9991
2 60531  97.6817 209.0009 0002184 112.1927 247.9528 14.98606515 94660
LEMU NGE                
1 60532U 24149BS  26132.10617312  .00001294  00000+0  12416-3 0  9993
2 60532  97.6847 207.7975 0002541 113.5140 246.6348 14.94801406 94567
LEMUR-2-STELLA          
1 60533U 24149BT  26132.26411437  .00006071  00000+0  36730-3 0  9994
2 60533  97.6731 214.5869 0001903 124.3206 235.8203 15.11005396 95073
