OBJECT_NAME,OBJECT_ID,EPOCH,MEAN_MOTION,ECCENTRICITY,INCLINATION,RA_OF_ASC_NODE,ARG_OF_PERICENTER,MEAN_ANOMALY,EPHEMERIS_TYPE,CLASSIFICATION_TYPE,NORAD_CAT_ID,ELEMENT_SET_NO,REV_AT_EPOCH,BSTAR,MEAN_MOTION_DOT,MEAN_MOTION_DDOT
NUSAT-49 (KLARA DAN VON NEUMANN),2024-149AJ,2026-05-11T23:15:58.129056,15.30232594,.00040225,97.3778,213.5026,75.4045,284.7642,0,U,60500,999,9659,.19729592E-3,.5695E-4,0
FLOCK 4BE-11,2024-149AK,2026-05-11T18:51:04.757472,15.41760761,.00044726,97.3698,215.5505,65.7851,294.3863,0,U,60501,999,9674,.27646813E-3,.11612E-3,0
YAM-7,2024-149AN,2026-05-12T04:30:48.738240,15.31310028,.00048198,97.3785,212.5982,74.2260,285.9513,0,U,60504,999,9654,.15356145E-3,.4567E-4,0
FLOCK 4BE-24,2024-149AP,2026-05-12T05:26:15.314496,15.41718786,.00045835,97.3716,216.2433,72.4641,287.7107,0,U,60505,999,9682,.26820083E-3,.11246E-3,0
LUR-1,2024-149AQ,2026-05-12T04:53:33.177408,15.29623633,.00056041,97.3741,211.3059,80.4765,279.7109,0,U,60506,999,9647,.15423797E-3,.4353E-4,0
TANAGER-1,2024-149AR,2026-05-11T16:33:30.362400,15.44550345,.00055897,97.3211,225.8137,74.0264,286.1600,0,U,60507,999,9740,.19580971E-3,.9008E-4,0
EAGLEEYE,2024-149AS,2026-05-12T05:37:33.087936,15.65092476,.00019281,97.3721,223.7632,54.0999,306.0439,0,U,60508,999,9730,.4950784E-3,.48806E-3,0
FLOCK 4BE-29,2024-149AT,2026-05-12T04:47:16.784448,15.42953584,.00038713,97.3808,217.5660,83.4699,276.6989,0,U,60509,999,9686,.24364208E-3,.10637E-3,0
TRANSPORTER-11 OBJECT AU,2024-149AU,2026-05-12T04:23:33.908640,15.39204809,.00047793,97.3727,215.6460,72.3205,287.8562,0,U,60510,999,9677,.23701439E-3,.9133E-4,0
FLOCK 4BE-2,2024-149AV,2026-05-12T04:21:05.234112,15.49024866,.00036451,97.3821,218.5623,81.9115,278.2550,0,U,60511,999,9692,.545132E-3,.29504E-3,0
FLOCK 4BE-13,2024-149AW,2026-05-12T04:34:11.398080,15.40908690,.00047687,97.3719,216.2567,55.7995,304.3703,0,U,60512,999,9682,.21060513E-3,.8575E-4,0
FLOCK 4BE-27,2024-149AX,2026-05-12T04:32:41.085888,15.33811702,.00053451,97.3826,214.0417,80.9668,279.2180,0,U,60513,999,9662,.1668013E-3,.5376E-4,0
FLOCK 4BE-9,2024-149AY,2026-05-12T05:27:53.879616,15.39706480,.00040138,97.3789,216.1827,84.9043,275.2661,0,U,60514,999,9678,.25871954E-3,.10143E-3,0
FLOCK 4BE-6,2024-149BA,2026-05-12T05:30:06.362784,15.38583484,.00047495,97.3787,215.6076,80.9876,279.1906,0,U,60516,999,9674,.24119865E-3,.9109E-4,0
FLOCK 4BE-14,2024-149BB,2026-05-11T23:37:29.905824,15.39867629,.00056232,97.3694,215.4692,78.5090,281.6787,0,U,60517,999,9675,.26255077E-3,.10353E-3,0
FLOCK 4BE-1,2024-149BC,2026-05-11T23:19:41.476512,15.41381486,.0005122,97.3778,216.6071,78.4541,281.7280,0,U,60518,999,9679,.28682205E-3,.119E-3,0
FLOCK 4BE-28,2024-149BD,2026-05-12T05:37:11.026560,15.43641004,.0005184,97.3745,217.4869,72.5646,287.6168,0,U,60519,999,9689,.27437001E-3,.12276E-3,0
IPERDRONE.0,2024-149BE,2026-05-12T05:20:40.917120,15.61876530,.00016503,97.3773,223.8046,44.0716,316.0673,0,U,60520,999,9729,.48793281E-3,.42382E-3,0
TRANSPORTER-11 OBJECT BF,2024-149BF,2026-05-12T05:30:10.990368,15.72433709,.00005095,97.3774,225.7752,337.5065,22.6176,0,U,60521,999,9741,.67310315E-3,.90072E-3,0
CONNECTA IOT-2,2024-149BG,2026-05-12T04:40:02.742816,15.23660027,.00081708,97.3842,210.8940,92.8601,267.3571,0,U,60522,999,9641,.12372735E-3,.2898E-4,0
PTD-R (TYVAK-0127),2024-149BH,2026-05-12T06:13:09.989760,15.87734058,.00012361,97.3769,229.8219,214.6775,145.4416,0,U,60523,999,9770,.49620718E-3,.133701E-2,0
CONNECTA IOT-4,2024-149BJ,2026-05-11T11:08:16.667520,15.40792610,.00062943,97.3794,215.4407,72.2396,287.9537,0,U,60524,999,9667,.28162201E-3,.11458E-3,0
ORESAT0.5,2024-149BK,2026-05-11T23:06:45.221760,15.43721672,.00062257,97.3716,217.4497,61.2746,298.9127,0,U,60525,999,9688,.28227731E-3,.1267E-3,0
DEIMOS,2024-149BL,2026-05-12T05:39:01.083744,15.42935903,.00063582,97.3777,217.8823,65.9624,294.2288,0,U,60526,999,9690,.2613117E-3,.11414E-3,0
CUAVA-2,2024-149BM,2026-05-12T02:45:04.078656,15.35277103,.00078873,97.3726,213.5972,69.5515,290.6575,0,U,60527,999,9663,.23360763E-3,.7929E-4,0
ERNST,2024-149BN,2026-05-12T04:58:05.213856,15.38246986,.00072669,97.3806,215.6852,72.9865,287.2176,0,U,60528,999,9674,.22608518E-3,.8443E-4,0
TORO,2024-149BQ,2026-05-12T06:19:08.627520,14.96286207,.0001586,97.6789,207.6041,95.6873,264.4530,0,U,60530,999,9458,.82427765E-4,.874E-5,0
HYPSO-2,2024-149BR,2026-05-12T05:07:51.980448,14.98606515,.00021847,97.6817,209.0009,112.1927,247.9528,0,U,60531,999,9466,.14130036E-3,.1636E-4,0
LEMU NGE,2024-149BS,2026-05-12T02:32:53.357568,14.94801406,.00025412,97.6847,207.7975,113.5140,246.6348,0,U,60532,999,9456,.12415917E-3,.1294E-4,0
LEMUR-2-STELLA,2024-149BT,2026-05-12T06:20:19.481568,15.11005396,.00019032,97.6731,214.5869,124.3206,235.8203,0,U,60533,999,9507,.36729717E-3,.6071E-4,0
